SV_TAXONOMY,TAXONOMY_NAME,RG_REFERENCE,RG_NAME,SV_REFERENCE,SV_NAME,SV_DESCRIPTION,SL_REFERENCE,LC_REFERENCE,WEBSITE,WHEELCHAIR_ACCESSIBLE,LANGUAGE,HOURS,STREET_NUMBER,CITY,POSTAL_CODE,LATITUDE,LONGITUDE,Facility,Hosp,811_LINK
LD-1700,Emergency Room Care,17646543,Interior Health Authority,17647094,Emergency Health Services,"Provides emergency services for patients arriving at the hospital in need of immediate care because of a health crisis or urgent medical condition. Most locations are open 24 hours a day, 7 days a week. Hours may vary, or be subject to change, in rural communities.   Individuals are encouraged to call ahead to confirm services will be available upon their arrival.",17647116,17646849,https://www.interiorhealth.ca/services/emergency-health-services,Y,,"24 hours a day, 7 days a week",555 Cedar Avenue S,100 Mile House,V0K 2E0,51.638711,-121.292384,100 Mile District General Hospital,708,http://www.healthlinkbc.ca/find/resource.asp?First=1&org=53965&agencynum=17647094&SiteResourceAgencyNum=17646849
LD-1700,Emergency Room Care,17644351,Fraser Health Authority,17645045,Emergency Health Services,"Provides 24-hour emergency services for patients arriving at the hospital in need of immediate care because of a health crisis or urgent medical condition. Patients are seen by a doctor on a priority basis based on the severity of the patient's condition upon arrival. Wait times can vary depending on time, location and level of need.",17645046,17644367,https://www.fraserhealth.ca/patients-and-visitors/when-to-use-the-emergency/,Y,,"24 hours a day, 7 days a week",32900 Marshall Road,Abbotsford,V2S 0C2,49.038152,-122.313003,Abbotsford Regional Hospital and Cancer Centre,609,http://www.healthlinkbc.ca/find/resource.asp?First=1&org=53965&agencynum=17645045&SiteResourceAgencyNum=17644367
LD-1700,Emergency Room Care,17646543,Interior Health Authority,17647094,Emergency Health Services,"Provides emergency services for patients arriving at the hospital in need of immediate care because of a health crisis or urgent medical condition. Most locations are open 24 hours a day, 7 days a week. Hours may vary, or be subject to change, in rural communities.   Individuals are encouraged to call ahead to confirm services will be available upon their arrival.",21397663,17647924,https://www.interiorhealth.ca/services/emergency-health-services,Y,,"24 hours a day, 7 days a week",2592 Morton Road,Alexis Creek,V0L 1A0,52.085559,-123.275914,Alexis Creek Health Centre,416,http://www.healthlinkbc.ca/find/resource.asp?First=1&org=53965&agencynum=17647094&SiteResourceAgencyNum=17647924
LD-1700,Emergency Room Care,17646543,Interior Health Authority,17647094,Emergency Health Services,"Provides emergency services for patients arriving at the hospital in need of immediate care because of a health crisis or urgent medical condition. Most locations are open 24 hours a day, 7 days a week. Hours may vary, or be subject to change, in rural communities.   Individuals are encouraged to call ahead to confirm services will be available upon their arrival.",17647124,17646553,https://www.interiorhealth.ca/services/emergency-health-services,Y,,"24 hours a day, 7 days a week",97 1st Avenue NE,Nakusp,V0G 1R0,50.238724,-117.794638,Arrow Lakes Hospital,655,http://www.healthlinkbc.ca/find/resource.asp?First=1&org=53965&agencynum=17647094&SiteResourceAgencyNum=17646553
LD-1700,Emergency Room Care,17646543,Interior Health Authority,17647094,Emergency Health Services,"Provides emergency services for patients arriving at the hospital in need of immediate care because of a health crisis or urgent medical condition. Most locations are open 24 hours a day, 7 days a week. Hours may vary, or be subject to change, in rural communities.   Individuals are encouraged to call ahead to confirm services will be available upon their arrival.",17647115,17646776,https://www.interiorhealth.ca/services/emergency-health-services,Y,,Closed weekdays. Open weekends starting at 6 pm on Friday to Monday at 8 am. Closed statutory holidays.,700 Ash-Cache Creek Highway,Ashcroft,V0K 1A0,50.734772,-121.280163,Ashcroft Hospital and Community Health Care Centre,408,http://www.healthlinkbc.ca/find/resource.asp?First=1&org=53965&agencynum=17647094&SiteResourceAgencyNum=17646776
LD-1700,Emergency Room Care,17652139,Northern Health,17653135,Emergency Health Services,Provides 24-hour emergency services for patients arriving at the hospital in need of immediate care because of a health crisis or urgent medical condition. Patients are seen by a doctor on a priority basis based on the severity of the patient's condition upon arrival. Operating hours may vary in rural communities that provide emergency care; individuals are encouraged to call ahead to confirm services will be available upon their arrival.,17653150,17652305,https://www.northernhealth.ca/locations/hospitals,Y,,Mon 09:00 - 16:30; Tue 09:00 - 16:30; Wed 09:00 - 16:30; Thu 09:00 - 16:30; Fri 09:00 - 16:30; On-call nurse available for after-hours emergencies; closed for lunch 12:00 - 13:00,188 Discovery Avenue,Atlin,V0W 1A0,59.574828,-133.704315,Atlin Health Centre,914,http://www.healthlinkbc.ca/find/resource.asp?First=1&org=53965&agencynum=17653135&SiteResourceAgencyNum=17652305
LD-1700,Emergency Room Care,17646543,Interior Health Authority,17647094,Emergency Health Services,"Provides emergency services for patients arriving at the hospital in need of immediate care because of a health crisis or urgent medical condition. Most locations are open 24 hours a day, 7 days a week. Hours may vary, or be subject to change, in rural communities.   Individuals are encouraged to call ahead to confirm services will be available upon their arrival.",17647095,17646767,https://www.interiorhealth.ca/services/emergency-health-services,Y,,Mon 08:30 - 16:30; Tue 08:30 - 16:30; Wed 08:30 - 16:30; Thu 08:30 - 16:30; Fri 08:30 - 16:30;,4537 Barriere Town Road,Barriere,V0E 1E0,51.180406,-120.125113,Barriere Health Centre,424,http://www.healthlinkbc.ca/find/resource.asp?First=1&org=53965&agencynum=17647094&SiteResourceAgencyNum=17646767
LD-1700,Emergency Room Care,17643939,BC Children's Hospital,17643949,Emergency Health Services,"Provides emergency medical care for children up to 16 years of age with acute medical, surgical and mental health illnesses or injuries.",52920600,52920595,http://www.bcchildrens.ca/our-services/hospital-services/emergency-services,Y,Translation services available,"24 hours a day, 7 days a week",880 West 28th Avenue,Vancouver,V5Z 4H4,49.246175,-123.121258,BC Children's Hospital,105,http://www.healthlinkbc.ca/find/resource.asp?First=1&org=53965&agencynum=17643949&SiteResourceAgencyNum=52920595
LD-1700,Emergency Room Care,17648936,Vancouver Coastal Health,17649851,Emergency Health Services,"Provides 24-hour emergency health care and trauma services in most hospital sites; operating hours may vary in rural areas. Services are prioritized based on the severity of the patient's condition upon arrival. Wait times can vary depending on time, location and level of need. Visit the ED Wait Times website to see current wait times of Vancouver, North Shore and Richmond emergency rooms.",55362737,17649124,http://www.vch.ca/your-care/emergency-care,Y,,"Open 24 hours, 7 days a week",1025 Elcho Street,Bella Coola,V0T 1C0,52.372895,-126.762576,Bella Coola General Hospital,906,http://www.healthlinkbc.ca/find/resource.asp?First=1&org=53965&agencynum=17649851&SiteResourceAgencyNum=17649124
LD-1700,Emergency Room Care,17646543,Interior Health Authority,17647094,Emergency Health Services,"Provides emergency services for patients arriving at the hospital in need of immediate care because of a health crisis or urgent medical condition. Most locations are open 24 hours a day, 7 days a week. Hours may vary, or be subject to change, in rural communities.   Individuals are encouraged to call ahead to confirm services will be available upon their arrival.",17647136,17647135,https://www.interiorhealth.ca/services/emergency-health-services,Y,,"24 hours a day, 7 days a week",7649 22nd Street,Grand Forks,V0H 1H2,49.030363,-118.467838,Boundary District Hospital,803,http://www.healthlinkbc.ca/find/resource.asp?First=1&org=53965&agencynum=17647094&SiteResourceAgencyNum=17647135
LD-1700,Emergency Room Care,17652139,Northern Health,17653135,Emergency Health Services,Provides 24-hour emergency services for patients arriving at the hospital in need of immediate care because of a health crisis or urgent medical condition. Patients are seen by a doctor on a priority basis based on the severity of the patient's condition upon arrival. Operating hours may vary in rural communities that provide emergency care; individuals are encouraged to call ahead to confirm services will be available upon their arrival.,17653149,17652292,https://www.northernhealth.ca/locations/hospitals,Y,,"24 hours a day, 7 days a week",3950 8th Avenue,Smithers,V0J 2N0,54.784976,-127.163822,Bulkley Valley District Hospital,903,http://www.healthlinkbc.ca/find/resource.asp?First=1&org=53965&agencynum=17653135&SiteResourceAgencyNum=17652292
LD-1700,Emergency Room Care,17644351,Fraser Health Authority,17645045,Emergency Health Services,"Provides 24-hour emergency services for patients arriving at the hospital in need of immediate care because of a health crisis or urgent medical condition. Patients are seen by a doctor on a priority basis based on the severity of the patient's condition upon arrival. Wait times can vary depending on time, location and level of need.",17645054,17644353,https://www.fraserhealth.ca/patients-and-visitors/when-to-use-the-emergency/,Y,,"24 hours a day, 7 days a week",3935 Kincaid Street,Burnaby,V5G 2X6,49.248776,-123.016837,Burnaby Hospital,130,http://www.healthlinkbc.ca/find/resource.asp?First=1&org=53965&agencynum=17645045&SiteResourceAgencyNum=17644353
LD-1700,Emergency Room Care,17646543,Interior Health Authority,17647094,Emergency Health Services,"Provides emergency services for patients arriving at the hospital in need of immediate care because of a health crisis or urgent medical condition. Most locations are open 24 hours a day, 7 days a week. Hours may vary, or be subject to change, in rural communities.   Individuals are encouraged to call ahead to confirm services will be available upon their arrival.",17647110,17646585,https://www.interiorhealth.ca/services/emergency-health-services,Y,,"24 hours a day, 7 days a week",517 6th Avenue N,Williams Lake,V2G 2G8,52.137421,-122.143656,Cariboo Memorial Hospital and Health Centre,406,http://www.healthlinkbc.ca/find/resource.asp?First=1&org=53965&agencynum=17647094&SiteResourceAgencyNum=17646585
LD-1700,Emergency Room Care,17646543,Interior Health Authority,17647094,Emergency Health Services,"Provides emergency services for patients arriving at the hospital in need of immediate care because of a health crisis or urgent medical condition. Most locations are open 24 hours a day, 7 days a week. Hours may vary, or be subject to change, in rural communities.   Individuals are encouraged to call ahead to confirm services will be available upon their arrival.",17647122,17646810,https://www.interiorhealth.ca/services/emergency-health-services,Y,,Mon 08:00 - 20:00; Tue 08:00 - 20:00; Wed 08:00 - 20:00; Thu 08:00 - 20:00; Fri 08:00 - 20:00; Sat 08:00 - 20:00; Sun 08:00 - 20:00;,709 10th Street,Castlegar,V1N 2H7,49.314395,-117.659998,Castlegar and District Community Health Centre,804,http://www.healthlinkbc.ca/find/resource.asp?First=1&org=53965&agencynum=17647094&SiteResourceAgencyNum=17646810
LD-1700,Emergency Room Care,17646543,Interior Health Authority,17647094,Emergency Health Services,"Provides emergency services for patients arriving at the hospital in need of immediate care because of a health crisis or urgent medical condition. Most locations are open 24 hours a day, 7 days a week. Hours may vary, or be subject to change, in rural communities.   Individuals are encouraged to call ahead to confirm services will be available upon their arrival.",17647133,17646759,https://www.interiorhealth.ca/services/emergency-health-services,Y,,"Hours vary, please call for hours of operation.",825 Thompson Avenue,Chase,V0E 1M0,50.818238,-119.68568,Chase Health Centre,426,http://www.healthlinkbc.ca/find/resource.asp?First=1&org=53965&agencynum=17647094&SiteResourceAgencyNum=17646759
LD-1700,Emergency Room Care,17652139,Northern Health,17653135,Emergency Health Services,Provides 24-hour emergency services for patients arriving at the hospital in need of immediate care because of a health crisis or urgent medical condition. Patients are seen by a doctor on a priority basis based on the severity of the patient's condition upon arrival. Operating hours may vary in rural communities that provide emergency care; individuals are encouraged to call ahead to confirm services will be available upon their arrival.,17653159,17652362,https://www.northernhealth.ca/locations/hospitals,Y,,"24 hours a day, 7 days a week",5500 Hospital Road,Chetwynd,V0C 1J0,55.695973,-121.64632,Chetwynd Hospital and Health Centre,716,http://www.healthlinkbc.ca/find/resource.asp?First=1&org=53965&agencynum=17653135&SiteResourceAgencyNum=17652362
LD-1700,Emergency Room Care,17644351,Fraser Health Authority,17645045,Emergency Health Services,"Provides 24-hour emergency services for patients arriving at the hospital in need of immediate care because of a health crisis or urgent medical condition. Patients are seen by a doctor on a priority basis based on the severity of the patient's condition upon arrival. Wait times can vary depending on time, location and level of need.",17645048,17644355,https://www.fraserhealth.ca/patients-and-visitors/when-to-use-the-emergency/,Y,,"24 hours a day, 7 days a week",45600 Menholm Road,Chilliwack,V2P 1P7,49.165763,-121.962422,Chilliwack General Hospital,601,http://www.healthlinkbc.ca/find/resource.asp?First=1&org=53965&agencynum=17645045&SiteResourceAgencyNum=17644355
LD-1700,Emergency Room Care,17650682,Island Health,17651530,Emergency Health Services,Provides 24-hour emergency services for patients arriving at the hospital in need of immediate care because of a health crisis or urgent medical condition. Patients are seen by a doctor on a priority basis based on the severity of the patient's condition upon arrival. Operating hours may vary in rural communities that provide emergency care; individuals are encouraged to call ahead to confirm services will be available upon their arrival.,17651543,17650887,https://www.islandhealth.ca/patients-visitors/visiting-emergency-department,Y,,"24 hours a day, 7 days a week",49 School Road,Alert Bay,V0N 1A0,50.583656,-126.926661,Cormorant Island Community Health Centre,507,http://www.healthlinkbc.ca/find/resource.asp?First=1&org=53965&agencynum=17651530&SiteResourceAgencyNum=17650887
LD-1700,Emergency Room Care,17650682,Island Health,17651530,Emergency Health Services,Provides 24-hour emergency services for patients arriving at the hospital in need of immediate care because of a health crisis or urgent medical condition. Patients are seen by a doctor on a priority basis based on the severity of the patient's condition upon arrival. Operating hours may vary in rural communities that provide emergency care; individuals are encouraged to call ahead to confirm services will be available upon their arrival.,17651537,17650858,https://www.islandhealth.ca/patients-visitors/visiting-emergency-department,Y,,"24 hours a day, 7 days a week",3045 Gibbins Road,Duncan,V9L 1E5,48.785009,-123.723323,Cowichan District Hospital,203,http://www.healthlinkbc.ca/find/resource.asp?First=1&org=53965&agencynum=17651530&SiteResourceAgencyNum=17650858
LD-1700,Emergency Room Care,17646543,Interior Health Authority,17647094,Emergency Health Services,"Provides emergency services for patients arriving at the hospital in need of immediate care because of a health crisis or urgent medical condition. Most locations are open 24 hours a day, 7 days a week. Hours may vary, or be subject to change, in rural communities.   Individuals are encouraged to call ahead to confirm services will be available upon their arrival.",17647099,17647098,https://www.interiorhealth.ca/services/emergency-health-services,Y,,"24 hours a day, 7 days a week",312 15th Avenue N,Creston,V0B 1G0,49.098702,-116.508309,Creston Valley Hospital and Health Centre,654,http://www.healthlinkbc.ca/find/resource.asp?First=1&org=53965&agencynum=17647094&SiteResourceAgencyNum=17647098
LD-1700,Emergency Room Care,17652139,Northern Health,17653135,Emergency Health Services,Provides 24-hour emergency services for patients arriving at the hospital in need of immediate care because of a health crisis or urgent medical condition. Patients are seen by a doctor on a priority basis based on the severity of the patient's condition upon arrival. Operating hours may vary in rural communities that provide emergency care; individuals are encouraged to call ahead to confirm services will be available upon their arrival.,17653153,17652143,https://www.northernhealth.ca/locations/hospitals,Y,,"24 hours a day, 7 days a week",11100 13th Street,Dawson Creek,V1G 3W8,55.749057,-120.237333,Dawson Creek and District Hospital,704,http://www.healthlinkbc.ca/find/resource.asp?First=1&org=53965&agencynum=17653135&SiteResourceAgencyNum=17652143
LD-1700,Emergency Room Care,17644351,Fraser Health Authority,17645045,Emergency Health Services,"Provides 24-hour emergency services for patients arriving at the hospital in need of immediate care because of a health crisis or urgent medical condition. Patients are seen by a doctor on a priority basis based on the severity of the patient's condition upon arrival. Wait times can vary depending on time, location and level of need.",17645057,17644361,https://www.fraserhealth.ca/patients-and-visitors/when-to-use-the-emergency/,Y,,"24 hours a day, 7 days a week",5800 Mountain View Boulevard,Delta,V4K 3V6,49.08461,-123.059929,Delta Hospital,134,http://www.healthlinkbc.ca/find/resource.asp?First=1&org=53965&agencynum=17645045&SiteResourceAgencyNum=17644361
LD-1700,Emergency Room Care,17646543,Interior Health Authority,17647094,Emergency Health Services,"Provides emergency services for patients arriving at the hospital in need of immediate care because of a health crisis or urgent medical condition. Most locations are open 24 hours a day, 7 days a week. Hours may vary, or be subject to change, in rural communities.   Individuals are encouraged to call ahead to confirm services will be available upon their arrival.",17647111,17646548,https://www.interiorhealth.ca/services/emergency-health-services,Y,,"Open 24 hours a day, 7 days a week based on availability. Hours subject to change; call ahead before going to the hospital.",640 Park Drive,Clearwater,V0E 1N0,51.646945,-120.018229,Dr. Helmcken Memorial Hospital,419,http://www.healthlinkbc.ca/find/resource.asp?First=1&org=53965&agencynum=17647094&SiteResourceAgencyNum=17646548
LD-1700,Emergency Room Care,17644351,Fraser Health Authority,17645045,Emergency Health Services,"Provides 24-hour emergency services for patients arriving at the hospital in need of immediate care because of a health crisis or urgent medical condition. Patients are seen by a doctor on a priority basis based on the severity of the patient's condition upon arrival. Wait times can vary depending on time, location and level of need.",17645053,17644357,https://www.fraserhealth.ca/patients-and-visitors/when-to-use-the-emergency/,Y,,"24 hours a day, 7 days a week",475 Guildford Way,Port Moody,V3H 3W9,49.283374,-122.823597,Eagle Ridge Hospital,136,http://www.healthlinkbc.ca/find/resource.asp?First=1&org=53965&agencynum=17645045&SiteResourceAgencyNum=17644357
LD-1700,Emergency Room Care,17646543,Interior Health Authority,17647094,Emergency Health Services,"Provides emergency services for patients arriving at the hospital in need of immediate care because of a health crisis or urgent medical condition. Most locations are open 24 hours a day, 7 days a week. Hours may vary, or be subject to change, in rural communities.   Individuals are encouraged to call ahead to confirm services will be available upon their arrival.",17647108,17646893,https://www.interiorhealth.ca/services/emergency-health-services,Y,,"24 hours a day, 7 days a week",13 24th Avenue N,Cranbrook,V1C 3H9,49.512483,-115.748688,East Kootenay Regional Hospital,756,http://www.healthlinkbc.ca/find/resource.asp?First=1&org=53965&agencynum=17647094&SiteResourceAgencyNum=17646893
LD-1700,Emergency Room Care,17646543,Interior Health Authority,17647094,Emergency Health Services,"Provides emergency services for patients arriving at the hospital in need of immediate care because of a health crisis or urgent medical condition. Most locations are open 24 hours a day, 7 days a week. Hours may vary, or be subject to change, in rural communities.   Individuals are encouraged to call ahead to confirm services will be available upon their arrival.",21397690,17647530,https://www.interiorhealth.ca/services/emergency-health-services,Y,,Mon 16:00 - 08:00; Tue 16:00 - 08:00; Wed 16:00 - 08:00; Thu 16:00 - 08:00;,322 Monashee Avenue,Edgewood,V0G 1J0,49.77841,-118.146151,Edgewood Health Centre,656,http://www.healthlinkbc.ca/find/resource.asp?First=1&org=53965&agencynum=17647094&SiteResourceAgencyNum=17647530
LD-1700,Emergency Room Care,17646543,Interior Health Authority,17647094,Emergency Health Services,"Provides emergency services for patients arriving at the hospital in need of immediate care because of a health crisis or urgent medical condition. Most locations are open 24 hours a day, 7 days a week. Hours may vary, or be subject to change, in rural communities.   Individuals are encouraged to call ahead to confirm services will be available upon their arrival.",17647109,17646590,https://www.interiorhealth.ca/services/emergency-health-services,Y,,"24 hours a day, 7 days a week",1501 5th Avenue,Fernie,V0B 1M0,49.51284,-115.0566,Elk Valley Hospital,753,http://www.healthlinkbc.ca/find/resource.asp?First=1&org=53965&agencynum=17647094&SiteResourceAgencyNum=17646590
LD-1700,Emergency Room Care,17646543,Interior Health Authority,17647094,Emergency Health Services,"Provides emergency services for patients arriving at the hospital in need of immediate care because of a health crisis or urgent medical condition. Most locations are open 24 hours a day, 7 days a week. Hours may vary, or be subject to change, in rural communities.   Individuals are encouraged to call ahead to confirm services will be available upon their arrival.",17647137,17646829,https://www.interiorhealth.ca/services/emergency-health-services,Y,,Mon 09:00 - 16:30; Tue 09:00 - 16:30; Wed 09:00 - 16:30; Thu 09:00 - 16:30; Fri 09:00 - 16:30; Closed statutory holidays. Hours subject to change; call ahead before going to the hospital. Elk Valley Hospital in Fernie is open 24-hours.,212 Alpine Way,Elkford,V0B 1H0,50.021306,-114.918185,Elkford Health Centre,757,http://www.healthlinkbc.ca/find/resource.asp?First=1&org=53965&agencynum=17647094&SiteResourceAgencyNum=17646829
LD-1700,Emergency Room Care,17652139,Northern Health,17653135,Emergency Health Services,Provides 24-hour emergency services for patients arriving at the hospital in need of immediate care because of a health crisis or urgent medical condition. Patients are seen by a doctor on a priority basis based on the severity of the patient's condition upon arrival. Operating hours may vary in rural communities that provide emergency care; individuals are encouraged to call ahead to confirm services will be available upon their arrival.,17653136,17652353,https://www.northernhealth.ca/locations/hospitals,Y,,"24 hours a day, 7 days a week",5315 Liard Street,Fort Nelson,V0C 1R0,58.809101,-122.703101,Fort Nelson General Hospital,714,http://www.healthlinkbc.ca/find/resource.asp?First=1&org=53965&agencynum=17653135&SiteResourceAgencyNum=17652353
LD-1700,Emergency Room Care,17652139,Northern Health,17653135,Emergency Health Services,Provides 24-hour emergency services for patients arriving at the hospital in need of immediate care because of a health crisis or urgent medical condition. Patients are seen by a doctor on a priority basis based on the severity of the patient's condition upon arrival. Operating hours may vary in rural communities that provide emergency care; individuals are encouraged to call ahead to confirm services will be available upon their arrival.,17653154,17652606,https://www.northernhealth.ca/locations/hospitals,Y,,"24 hours a day, 7 days a week",8407 112th Avenue,Fort St John,V1J 0J5,56.256892,-120.817122,Fort St. John Hospital,701,http://www.healthlinkbc.ca/find/resource.asp?First=1&org=53965&agencynum=17653135&SiteResourceAgencyNum=17652606
LD-1700,Emergency Room Care,17644351,Fraser Health Authority,17645045,Emergency Health Services,"Provides 24-hour emergency services for patients arriving at the hospital in need of immediate care because of a health crisis or urgent medical condition. Patients are seen by a doctor on a priority basis based on the severity of the patient's condition upon arrival. Wait times can vary depending on time, location and level of need.",17645049,17644442,https://www.fraserhealth.ca/patients-and-visitors/when-to-use-the-emergency/,Y,,"24 hours a day, 7 days a week",1275 7th Avenue,Hope,V0X 1L4,49.376899,-121.424345,Fraser Canyon Hospital,606,http://www.healthlinkbc.ca/find/resource.asp?First=1&org=53965&agencynum=17645045&SiteResourceAgencyNum=17644442
LD-1700,Emergency Room Care,17652139,Northern Health,17653135,Emergency Health Services,Provides 24-hour emergency services for patients arriving at the hospital in need of immediate care because of a health crisis or urgent medical condition. Patients are seen by a doctor on a priority basis based on the severity of the patient's condition upon arrival. Operating hours may vary in rural communities that provide emergency care; individuals are encouraged to call ahead to confirm services will be available upon their arrival.,17653141,17652193,https://www.northernhealth.ca/locations/hospitals,Y,,Mon 09:00 - 17:00; Tue 09:00 - 17:00; Wed 09:00 - 17:00; Thu 09:00 - 17:00; Fri 09:00 - 17:00;,130 Chowsunket Street,Fraser Lake,V0J 1S0,54.059109,-124.849774,Fraser Lake Community Health Centre,758,http://www.healthlinkbc.ca/find/resource.asp?First=1&org=53965&agencynum=17653135&SiteResourceAgencyNum=17652193
LD-1700,Emergency Room Care,17652139,Northern Health,17653135,Emergency Health Services,Provides 24-hour emergency services for patients arriving at the hospital in need of immediate care because of a health crisis or urgent medical condition. Patients are seen by a doctor on a priority basis based on the severity of the patient's condition upon arrival. Operating hours may vary in rural communities that provide emergency care; individuals are encouraged to call ahead to confirm services will be available upon their arrival.,17653156,17652141,https://www.northernhealth.ca/locations/hospitals,Y,,"24 hours a day, 7 days a week",543 Front Street,Quesnel,V2J 2K7,52.981739,-122.498817,G.R. Baker Memorial Hospital,705,http://www.healthlinkbc.ca/find/resource.asp?First=1&org=53965&agencynum=17653135&SiteResourceAgencyNum=17652141
LD-1700,Emergency Room Care,17650682,Island Health,17651530,Emergency Health Services,Provides 24-hour emergency services for patients arriving at the hospital in need of immediate care because of a health crisis or urgent medical condition. Patients are seen by a doctor on a priority basis based on the severity of the patient's condition upon arrival. Operating hours may vary in rural communities that provide emergency care; individuals are encouraged to call ahead to confirm services will be available upon their arrival.,17651544,17650759,https://www.islandhealth.ca/patients-visitors/visiting-emergency-department,Y,,"24 hours a day, 7 days a week; call ahead to confirm.",601 Trumpeter Drive,Gold River,V0P 1G0,49.78125,-126.048774,Gold River Health Centre,860,http://www.healthlinkbc.ca/find/resource.asp?First=1&org=53965&agencynum=17651530&SiteResourceAgencyNum=17650759
LD-1700,Emergency Room Care,17646543,Interior Health Authority,17647094,Emergency Health Services,"Provides emergency services for patients arriving at the hospital in need of immediate care because of a health crisis or urgent medical condition. Most locations are open 24 hours a day, 7 days a week. Hours may vary, or be subject to change, in rural communities.   Individuals are encouraged to call ahead to confirm services will be available upon their arrival.",17647106,17647105,https://www.interiorhealth.ca/services/emergency-health-services,Y,,"24 hours a day, 7 days a week",835 9th Avenue S,Golden,V0A 1H0,51.296527,-116.966604,Golden and District Hospital,409,http://www.healthlinkbc.ca/find/resource.asp?First=1&org=53965&agencynum=17647094&SiteResourceAgencyNum=17647105
LD-1700,Emergency Room Care,17652139,Northern Health,17653135,Emergency Health Services,Provides 24-hour emergency services for patients arriving at the hospital in need of immediate care because of a health crisis or urgent medical condition. Patients are seen by a doctor on a priority basis based on the severity of the patient's condition upon arrival. Operating hours may vary in rural communities that provide emergency care; individuals are encouraged to call ahead to confirm services will be available upon their arrival.,17653148,17652557,https://www.northernhealth.ca/locations/hospitals,Y,,"24 hours a day, 7 days a week",3209 Oceanview Drive,Queen Charlotte,V0T 1S0,53.254868,-132.070526,Haida Gwaii Hospital and Health Centre,907,http://www.healthlinkbc.ca/find/resource.asp?First=1&org=53965&agencynum=17653135&SiteResourceAgencyNum=17652557
LD-1700,Emergency Room Care,17652139,Northern Health,17653135,Emergency Health Services,Provides 24-hour emergency services for patients arriving at the hospital in need of immediate care because of a health crisis or urgent medical condition. Patients are seen by a doctor on a priority basis based on the severity of the patient's condition upon arrival. Operating hours may vary in rural communities that provide emergency care; individuals are encouraged to call ahead to confirm services will be available upon their arrival.,17653158,17652178,https://www.northernhealth.ca/locations/hospitals,Y,,Service only available when doctor is on-site; call ahead before going to the hospital.,10309 Kyllo Street,Hudson's Hope,V0C 1V0,56.026604,-121.914866,Hudson's Hope Health Centre,759,http://www.healthlinkbc.ca/find/resource.asp?First=1&org=53965&agencynum=17653135&SiteResourceAgencyNum=17652178
LD-1700,Emergency Room Care,17646543,Interior Health Authority,17647094,Emergency Health Services,"Provides emergency services for patients arriving at the hospital in need of immediate care because of a health crisis or urgent medical condition. Most locations are open 24 hours a day, 7 days a week. Hours may vary, or be subject to change, in rural communities.   Individuals are encouraged to call ahead to confirm services will be available upon their arrival.",17647104,17647103,https://www.interiorhealth.ca/services/emergency-health-services,Y,,"24 hours a day, 7 days a week",850 10th Avenue,Invermere,V0A 1K0,50.506441,-116.032224,Invermere and District Hospital  ,755,http://www.healthlinkbc.ca/find/resource.asp?First=1&org=53965&agencynum=17647094&SiteResourceAgencyNum=17647103
LD-1700,Emergency Room Care,17646543,Interior Health Authority,17647094,Emergency Health Services,"Provides emergency services for patients arriving at the hospital in need of immediate care because of a health crisis or urgent medical condition. Most locations are open 24 hours a day, 7 days a week. Hours may vary, or be subject to change, in rural communities.   Individuals are encouraged to call ahead to confirm services will be available upon their arrival.",17647125,17646738,https://www.interiorhealth.ca/services/emergency-health-services,Y,,"24 hours a day, 7 days a week",2268 Pandosy Street,Kelowna,V1Y 1T2,49.873281,-119.491273,Kelowna General Hospital,302,http://www.healthlinkbc.ca/find/resource.asp?First=1&org=53965&agencynum=17647094&SiteResourceAgencyNum=17646738
LD-1700,Emergency Room Care,17652139,Northern Health,17653135,Emergency Health Services,Provides 24-hour emergency services for patients arriving at the hospital in need of immediate care because of a health crisis or urgent medical condition. Patients are seen by a doctor on a priority basis based on the severity of the patient's condition upon arrival. Operating hours may vary in rural communities that provide emergency care; individuals are encouraged to call ahead to confirm services will be available upon their arrival.,17653144,17652147,https://www.northernhealth.ca/locations/hospitals,Y,,"24 hours a day, 7 days a week",920 S Lahakas Blvd,Kitimat,V8C 2S3,54.050409,-128.647481,Kitimat General Hospital and Health Centre,917,http://www.healthlinkbc.ca/find/resource.asp?First=1&org=53965&agencynum=17653135&SiteResourceAgencyNum=17652147
LD-1700,Emergency Room Care,17646543,Interior Health Authority,17647094,Emergency Health Services,"Provides emergency services for patients arriving at the hospital in need of immediate care because of a health crisis or urgent medical condition. Most locations are open 24 hours a day, 7 days a week. Hours may vary, or be subject to change, in rural communities.   Individuals are encouraged to call ahead to confirm services will be available upon their arrival.",17647126,17646551,https://www.interiorhealth.ca/services/emergency-health-services,Y,,"24 hours a day, 7 days a week",1200 Hospital Bench,Trail,V1R 4M1,49.10318,-117.70147,Kootenay Boundary Regional Hospital,801,http://www.healthlinkbc.ca/find/resource.asp?First=1&org=53965&agencynum=17647094&SiteResourceAgencyNum=17646551
LD-1700,Emergency Room Care,17646543,Interior Health Authority,17647094,Emergency Health Services,"Provides emergency services for patients arriving at the hospital in need of immediate care because of a health crisis or urgent medical condition. Most locations are open 24 hours a day, 7 days a week. Hours may vary, or be subject to change, in rural communities.   Individuals are encouraged to call ahead to confirm services will be available upon their arrival.",17647113,17646896,https://www.interiorhealth.ca/services/emergency-health-services,Y,,"24 hours a day, 7 days a week",3 View Street,Nelson,V1L 2V1,49.495025,-117.284817,Kootenay Lake Hospital,651,http://www.healthlinkbc.ca/find/resource.asp?First=1&org=53965&agencynum=17647094&SiteResourceAgencyNum=17646896
LD-1700,Emergency Room Care,17650682,Island Health,17651530,Emergency Health Services,Provides 24-hour emergency services for patients arriving at the hospital in need of immediate care because of a health crisis or urgent medical condition. Patients are seen by a doctor on a priority basis based on the severity of the patient's condition upon arrival. Operating hours may vary in rural communities that provide emergency care; individuals are encouraged to call ahead to confirm services will be available upon their arrival.,17651541,17650864,https://www.islandhealth.ca/patients-visitors/visiting-emergency-department,Y,,"24 hours a day, 7 days a week",135 Crofton Road,Salt Spring Island,V8K 1T1,48.861445,-123.508599,Lady Minto/Gulf Islands Hospital,206,http://www.healthlinkbc.ca/find/resource.asp?First=1&org=53965&agencynum=17651530&SiteResourceAgencyNum=17650864
LD-1700,Emergency Room Care,17652139,Northern Health,17653135,Emergency Health Services,Provides 24-hour emergency services for patients arriving at the hospital in need of immediate care because of a health crisis or urgent medical condition. Patients are seen by a doctor on a priority basis based on the severity of the patient's condition upon arrival. Operating hours may vary in rural communities that provide emergency care; individuals are encouraged to call ahead to confirm services will be available upon their arrival.,17653143,17652667,https://www.northernhealth.ca/locations/hospitals,Y,,"24 hours a day, 7 days a week",741 Centre Street,Burns Lake,V0J 1E0,54.235568,-125.760016,Lakes District Hospital and Health Centre,707,http://www.healthlinkbc.ca/find/resource.asp?First=1&org=53965&agencynum=17653135&SiteResourceAgencyNum=17652667
LD-1700,Emergency Room Care,17644351,Fraser Health Authority,17645045,Emergency Health Services,"Provides 24-hour emergency services for patients arriving at the hospital in need of immediate care because of a health crisis or urgent medical condition. Patients are seen by a doctor on a priority basis based on the severity of the patient's condition upon arrival. Wait times can vary depending on time, location and level of need.",17645050,17644429,https://www.fraserhealth.ca/patients-and-visitors/when-to-use-the-emergency/,Y,,"24 hours a day, 7 days a week",22051 Fraser Highway,Langley,V3A 4H4,49.093175,-122.613957,Langley Memorial Hospital,115,http://www.healthlinkbc.ca/find/resource.asp?First=1&org=53965&agencynum=17645045&SiteResourceAgencyNum=17644429
LD-1700,Emergency Room Care,17646543,Interior Health Authority,17647094,Emergency Health Services,"Provides emergency services for patients arriving at the hospital in need of immediate care because of a health crisis or urgent medical condition. Most locations are open 24 hours a day, 7 days a week. Hours may vary, or be subject to change, in rural communities.   Individuals are encouraged to call ahead to confirm services will be available upon their arrival.",17647112,17646943,https://www.interiorhealth.ca/services/emergency-health-services,Y,,"24 hours a day, 7 days a week",951 Murray Street,Lillooet,V0K 1V0,50.689254,-121.939063,Lillooet Hospital and Health Centre,417,http://www.healthlinkbc.ca/find/resource.asp?First=1&org=53965&agencynum=17647094&SiteResourceAgencyNum=17646943
LD-1700,Emergency Room Care,17648936,Vancouver Coastal Health,17649851,Emergency Health Services,"Provides 24-hour emergency health care and trauma services in most hospital sites; operating hours may vary in rural areas. Services are prioritized based on the severity of the patient's condition upon arrival. Wait times can vary depending on time, location and level of need. Visit the ED Wait Times website to see current wait times of Vancouver, North Shore and Richmond emergency rooms.",55362740,17648961,http://www.vch.ca/your-care/emergency-care,Y,,"Open 24 hours, 7 days a week",231 East 15th Street,North Vancouver,V7L 2L7,49.320214,-123.068318,Lions Gate Hospital,112,http://www.healthlinkbc.ca/find/resource.asp?First=1&org=53965&agencynum=17649851&SiteResourceAgencyNum=17648961
LD-1700,Emergency Room Care,17652139,Northern Health,17653135,Emergency Health Services,Provides 24-hour emergency services for patients arriving at the hospital in need of immediate care because of a health crisis or urgent medical condition. Patients are seen by a doctor on a priority basis based on the severity of the patient's condition upon arrival. Operating hours may vary in rural communities that provide emergency care; individuals are encouraged to call ahead to confirm services will be available upon their arrival.,17653151,17652365,https://www.northernhealth.ca/locations/hospitals,Y,,"24 hours a day, 7 days a week",45 Centennial Drive,Mackenzie,V0J 2C0,55.33812,-123.101288,Mackenzie and District Hospital and Health Centre,715,http://www.healthlinkbc.ca/find/resource.asp?First=1&org=53965&agencynum=17653135&SiteResourceAgencyNum=17652365
LD-1700,Emergency Room Care,17652139,Northern Health,17653135,Emergency Health Services,Provides 24-hour emergency services for patients arriving at the hospital in need of immediate care because of a health crisis or urgent medical condition. Patients are seen by a doctor on a priority basis based on the severity of the patient's condition upon arrival. Operating hours may vary in rural communities that provide emergency care; individuals are encouraged to call ahead to confirm services will be available upon their arrival.,17653152,17652295,https://www.northernhealth.ca/locations/hospitals,Y,,"24 hours a day, 7 days a week",1136 5th Avenue,McBride,V0J 2E0,53.300909,-120.16308,McBride and District Hospital,713,http://www.healthlinkbc.ca/find/resource.asp?First=1&org=53965&agencynum=17653135&SiteResourceAgencyNum=17652295
LD-1700,Emergency Room Care,17652139,Northern Health,17653135,Emergency Health Services,Provides 24-hour emergency services for patients arriving at the hospital in need of immediate care because of a health crisis or urgent medical condition. Patients are seen by a doctor on a priority basis based on the severity of the patient's condition upon arrival. Operating hours may vary in rural communities that provide emergency care; individuals are encouraged to call ahead to confirm services will be available upon their arrival.,17653145,17652898,https://www.northernhealth.ca/locations/hospitals,Y,,"24 hours a day, 7 days a week",4720 Haugland Avenue,Terrace,V8G 2W7,54.510843,-128.596516,Mills Memorial Hospital,912,http://www.healthlinkbc.ca/find/resource.asp?First=1&org=53965&agencynum=17653135&SiteResourceAgencyNum=17652898
LD-1700,Emergency Room Care,17644351,Fraser Health Authority,17645045,Emergency Health Services,"Provides 24-hour emergency services for patients arriving at the hospital in need of immediate care because of a health crisis or urgent medical condition. Patients are seen by a doctor on a priority basis based on the severity of the patient's condition upon arrival. Wait times can vary depending on time, location and level of need.",17645055,17644460,https://www.fraserhealth.ca/patients-and-visitors/when-to-use-the-emergency/,Y,,"24 hours a day, 7 days a week",7324 Hurd Street,Mission,V2V 3H5,49.135186,-122.331733,Mission Memorial Hospital,602,http://www.healthlinkbc.ca/find/resource.asp?First=1&org=53965&agencynum=17645045&SiteResourceAgencyNum=17644460
LD-1700,Emergency Room Care,17654593,Providence Health Care Society,17654692,Emergency Health Services,"Provides emergency health care services for Vancouver's downtown city centre and East Vancouver residents at two acute care hospitals. Services are prioritized based on the severity of a patient's condition upon arrival. St. Paul's Emergency Department specializes in complex and multiple diagnosis, surgery, internal medicine and speciality medicine. Mount Saint Joseph's Emergency Department offers full primary and secondary health services as well as providing specific multicultural services. Children are seen at this site, although there is no children's inpatient unit.",17654694,17654602,https://www.providencehealthcare.org/hospitals-residences/mount-saint-joseph-hospital/emergency-services,Y,Translation services available,Mon 08:00 - 20:00; Tue 08:00 - 20:00; Wed 08:00 - 20:00; Thu 08:00 - 20:00; Fri 08:00 - 20:00; Sat 08:00 - 20:00; Sun 08:00 - 20:00;,3080 Prince Edward Street,Vancouver,V5T 3N4,49.257699,-123.096358,Mount Saint Joseph Hospital  ,106,http://www.healthlinkbc.ca/find/resource.asp?First=1&org=53965&agencynum=17654692&SiteResourceAgencyNum=17654602
LD-1700,Emergency Room Care,17650682,Island Health,17651530,Emergency Health Services,Provides 24-hour emergency services for patients arriving at the hospital in need of immediate care because of a health crisis or urgent medical condition. Patients are seen by a doctor on a priority basis based on the severity of the patient's condition upon arrival. Operating hours may vary in rural communities that provide emergency care; individuals are encouraged to call ahead to confirm services will be available upon their arrival.,17651538,17650860,https://www.islandhealth.ca/patients-visitors/visiting-emergency-department,Y,,"24 hours a day, 7 days a week",1200 Dufferin Crescent,Nanaimo,V9S 2B7,49.183502,-123.969945,Nanaimo Regional General Hospital,501,http://www.healthlinkbc.ca/find/resource.asp?First=1&org=53965&agencynum=17651530&SiteResourceAgencyNum=17650860
LD-1700,Emergency Room Care,17646543,Interior Health Authority,17647094,Emergency Health Services,"Provides emergency services for patients arriving at the hospital in need of immediate care because of a health crisis or urgent medical condition. Most locations are open 24 hours a day, 7 days a week. Hours may vary, or be subject to change, in rural communities.   Individuals are encouraged to call ahead to confirm services will be available upon their arrival.",17647100,17646747,https://www.interiorhealth.ca/services/emergency-health-services,Y,,"24 hours a day, 7 days a week",3451 Voght Street,Merritt,V1K 1C6,50.121468,-120.771016,Nicola Valley Hospital and Health Centre,403,http://www.healthlinkbc.ca/find/resource.asp?First=1&org=53965&agencynum=17647094&SiteResourceAgencyNum=17646747
LD-1700,Emergency Room Care,17650682,Island Health,17651530,Emergency Health Services,Provides 24-hour emergency services for patients arriving at the hospital in need of immediate care because of a health crisis or urgent medical condition. Patients are seen by a doctor on a priority basis based on the severity of the patient's condition upon arrival. Operating hours may vary in rural communities that provide emergency care; individuals are encouraged to call ahead to confirm services will be available upon their arrival.,17651535,17650856,https://www.islandhealth.ca/patients-visitors/visiting-emergency-department,Y,,"24 hours a day, 7 days a week",375 2nd Avenue,Campbell River,V9W 3V1,50.011132,-125.243155,North Island Hospital Campbell River and District,508,http://www.healthlinkbc.ca/find/resource.asp?First=1&org=53965&agencynum=17651530&SiteResourceAgencyNum=17650856
LD-1700,Emergency Room Care,17650682,Island Health,17651530,Emergency Health Services,Provides 24-hour emergency services for patients arriving at the hospital in need of immediate care because of a health crisis or urgent medical condition. Patients are seen by a doctor on a priority basis based on the severity of the patient's condition upon arrival. Operating hours may vary in rural communities that provide emergency care; individuals are encouraged to call ahead to confirm services will be available upon their arrival.,55363068,55347959,https://www.islandhealth.ca/patients-visitors/visiting-emergency-department,Y,,"24 hours a day, 7 days a week",101 Lerwick Road,Courtenay,V9N 0B9,49.712428,-124.969565,North Island Hospital Comox Valley,503,http://www.healthlinkbc.ca/find/resource.asp?First=1&org=53965&agencynum=17651530&SiteResourceAgencyNum=55347959
LD-1700,Emergency Room Care,17652139,Northern Health,17653135,Emergency Health Services,Provides 24-hour emergency services for patients arriving at the hospital in need of immediate care because of a health crisis or urgent medical condition. Patients are seen by a doctor on a priority basis based on the severity of the patient's condition upon arrival. Operating hours may vary in rural communities that provide emergency care; individuals are encouraged to call ahead to confirm services will be available upon their arrival.,17653147,17652267,https://www.northernhealth.ca/locations/hospitals,Y,,"24 hours a day, 7 days a week staffed by registered nurses; physician on-call after-hours",2520 Harrison Avenue,Masset,V0T 1M0,54.012317,-132.151708,Northern Haida Gwaii Hospital and Health Centre,918,http://www.healthlinkbc.ca/find/resource.asp?First=1&org=53965&agencynum=17653135&SiteResourceAgencyNum=17652267
LD-1700,Emergency Room Care,17644351,Fraser Health Authority,17645045,Emergency Health Services,"Provides 24-hour emergency services for patients arriving at the hospital in need of immediate care because of a health crisis or urgent medical condition. Patients are seen by a doctor on a priority basis based on the severity of the patient's condition upon arrival. Wait times can vary depending on time, location and level of need.",17645056,17644418,https://www.fraserhealth.ca/patients-and-visitors/when-to-use-the-emergency/,Y,,"24 hours a day, 7 days a week",15521 Russell Avenue,White Rock,V4B 2R4,49.029793,-122.793632,Peace Arch Hospital,131,http://www.healthlinkbc.ca/find/resource.asp?First=1&org=53965&agencynum=17645045&SiteResourceAgencyNum=17644418
LD-1700,Emergency Room Care,17648936,Vancouver Coastal Health,17649851,Emergency Health Services,"Provides 24-hour emergency health care and trauma services in most hospital sites; operating hours may vary in rural areas. Services are prioritized based on the severity of the patient's condition upon arrival. Wait times can vary depending on time, location and level of need. Visit the ED Wait Times website to see current wait times of Vancouver, North Shore and Richmond emergency rooms.",55363051,17649176,http://www.vch.ca/your-care/emergency-care,Y,,Mon 08:30 - 20:30; Tue 08:30 - 20:30; Wed 08:30 - 20:30; Thu 08:30 - 20:30; Fri 08:30 - 20:30; Sat 08:30 - 20:30; Sun 08:30 - 20:30;,1403 Portage Road,Pemberton,V0N 2L0,50.32076,-122.804482,Pemberton Health Centre,422,http://www.healthlinkbc.ca/find/resource.asp?First=1&org=53965&agencynum=17649851&SiteResourceAgencyNum=17649176
LD-1700,Emergency Room Care,17646543,Interior Health Authority,17647094,Emergency Health Services,"Provides emergency services for patients arriving at the hospital in need of immediate care because of a health crisis or urgent medical condition. Most locations are open 24 hours a day, 7 days a week. Hours may vary, or be subject to change, in rural communities.   Individuals are encouraged to call ahead to confirm services will be available upon their arrival.",17647107,17646582,https://www.interiorhealth.ca/services/emergency-health-services,Y,,"24 hours a day, 7 days a week",550 Carmi Avenue,Penticton,V2A 3G6,49.482657,-119.578687,Penticton Regional Hospital,303,http://www.healthlinkbc.ca/find/resource.asp?First=1&org=53965&agencynum=17647094&SiteResourceAgencyNum=17646582
LD-1700,Emergency Room Care,17650682,Island Health,17651530,Emergency Health Services,Provides 24-hour emergency services for patients arriving at the hospital in need of immediate care because of a health crisis or urgent medical condition. Patients are seen by a doctor on a priority basis based on the severity of the patient's condition upon arrival. Operating hours may vary in rural communities that provide emergency care; individuals are encouraged to call ahead to confirm services will be available upon their arrival.,17651542,17651079,https://www.islandhealth.ca/patients-visitors/visiting-emergency-department,Y,,"24 hours a day, 7 days a week; call ahead to confirm.",1090 Marine Drive,Port Alice,V0N 2N0,50.4255,-127.487219,Port Alice Health Centre,859,http://www.healthlinkbc.ca/find/resource.asp?First=1&org=53965&agencynum=17651530&SiteResourceAgencyNum=17651079
LD-1700,Emergency Room Care,17650682,Island Health,17651530,Emergency Health Services,Provides 24-hour emergency services for patients arriving at the hospital in need of immediate care because of a health crisis or urgent medical condition. Patients are seen by a doctor on a priority basis based on the severity of the patient's condition upon arrival. Operating hours may vary in rural communities that provide emergency care; individuals are encouraged to call ahead to confirm services will be available upon their arrival.,17651532,17651090,https://www.islandhealth.ca/patients-visitors/visiting-emergency-department,Y,,"24 hours a day, 7 days a week",9120 Granville Street,Port Hardy,V0N 2P0,50.720244,-127.503215,Port Hardy Hospital,510,http://www.healthlinkbc.ca/find/resource.asp?First=1&org=53965&agencynum=17651530&SiteResourceAgencyNum=17651090
LD-1700,Emergency Room Care,17650682,Island Health,17651530,Emergency Health Services,Provides 24-hour emergency services for patients arriving at the hospital in need of immediate care because of a health crisis or urgent medical condition. Patients are seen by a doctor on a priority basis based on the severity of the patient's condition upon arrival. Operating hours may vary in rural communities that provide emergency care; individuals are encouraged to call ahead to confirm services will be available upon their arrival.,17651531,17650890,https://www.islandhealth.ca/patients-visitors/visiting-emergency-department,Y,,"24 hours a day, 7 days a week",2750 Kingcome Place,Port McNeill,V0N 2R0,50.58026,-127.067379,Port McNeill Hospital,511,http://www.healthlinkbc.ca/find/resource.asp?First=1&org=53965&agencynum=17651530&SiteResourceAgencyNum=17650890
LD-1700,Emergency Room Care,17648936,Vancouver Coastal Health,17649851,Emergency Health Services,"Provides 24-hour emergency health care and trauma services in most hospital sites; operating hours may vary in rural areas. Services are prioritized based on the severity of the patient's condition upon arrival. Wait times can vary depending on time, location and level of need. Visit the ED Wait Times website to see current wait times of Vancouver, North Shore and Richmond emergency rooms.",55362734,17648993,http://www.vch.ca/your-care/emergency-care,Y,,"Open 24 hours, 7 days a week",5000 Joyce Avenue,Powell River,V8A 5R3,49.851072,-124.520727,Powell River General Hospital,111,http://www.healthlinkbc.ca/find/resource.asp?First=1&org=53965&agencynum=17649851&SiteResourceAgencyNum=17648993
LD-1700,Emergency Room Care,17652139,Northern Health,17653135,Emergency Health Services,Provides 24-hour emergency services for patients arriving at the hospital in need of immediate care because of a health crisis or urgent medical condition. Patients are seen by a doctor on a priority basis based on the severity of the patient's condition upon arrival. Operating hours may vary in rural communities that provide emergency care; individuals are encouraged to call ahead to confirm services will be available upon their arrival.,17653160,17652308,https://www.northernhealth.ca/locations/hospitals,N,,"24 hours a day, 7 days a week",1305 Summit Avenue,Prince Rupert,V8J 2A6,54.304265,-130.332179,Prince Rupert Regional Hospital,902,http://www.healthlinkbc.ca/find/resource.asp?First=1&org=53965&agencynum=17653135&SiteResourceAgencyNum=17652308
LD-1700,Emergency Room Care,17646543,Interior Health Authority,17647094,Emergency Health Services,"Provides emergency services for patients arriving at the hospital in need of immediate care because of a health crisis or urgent medical condition. Most locations are open 24 hours a day, 7 days a week. Hours may vary, or be subject to change, in rural communities.   Individuals are encouraged to call ahead to confirm services will be available upon their arrival.",17647097,17647096,https://www.interiorhealth.ca/services/emergency-health-services,Y,,"24 hours a day, 7 days a week",98 Ridgewood Drive,Princeton,V0X 1W0,49.453436,-120.526235,Princeton General Hospital,305,http://www.healthlinkbc.ca/find/resource.asp?First=1&org=53965&agencynum=17647094&SiteResourceAgencyNum=17647096
LD-1700,Emergency Room Care,17646543,Interior Health Authority,17647094,Emergency Health Services,"Provides emergency services for patients arriving at the hospital in need of immediate care because of a health crisis or urgent medical condition. Most locations are open 24 hours a day, 7 days a week. Hours may vary, or be subject to change, in rural communities.   Individuals are encouraged to call ahead to confirm services will be available upon their arrival.",17647117,17646569,https://www.interiorhealth.ca/services/emergency-health-services,Y,,"24 hours a day, 7 days a week",1200 Newlands Road,Revelstoke,V0E 2S0,50.976799,-118.191902,Queen Victoria Hospital and Health Centre,402,http://www.healthlinkbc.ca/find/resource.asp?First=1&org=53965&agencynum=17647094&SiteResourceAgencyNum=17646569
LD-1700,Emergency Room Care,17648936,Vancouver Coastal Health,17649851,Emergency Health Services,"Provides 24-hour emergency health care and trauma services in most hospital sites; operating hours may vary in rural areas. Services are prioritized based on the severity of the patient's condition upon arrival. Wait times can vary depending on time, location and level of need. Visit the ED Wait Times website to see current wait times of Vancouver, North Shore and Richmond emergency rooms.",55362730,17648966,http://www.vch.ca/your-care/emergency-care,Y,,"Open 24 hours, 7 days a week",88 Waglisla Street,Bella Bella,V0T 1Z0,52.160187,-128.143874,R.W. Large Memorial Hospital,904,http://www.healthlinkbc.ca/find/resource.asp?First=1&org=53965&agencynum=17649851&SiteResourceAgencyNum=17648966
LD-1700,Emergency Room Care,17648936,Vancouver Coastal Health,17649851,Emergency Health Services,"Provides 24-hour emergency health care and trauma services in most hospital sites; operating hours may vary in rural areas. Services are prioritized based on the severity of the patient's condition upon arrival. Wait times can vary depending on time, location and level of need. Visit the ED Wait Times website to see current wait times of Vancouver, North Shore and Richmond emergency rooms.",17649852,17648995,http://www.vch.ca/your-care/emergency-care,Y,,"Open 24 hours, 7 days a week",7000 Westminster Highway,Richmond,V6X 1A2,49.170162,-123.147547,Richmond Hospital,121,http://www.healthlinkbc.ca/find/resource.asp?First=1&org=53965&agencynum=17649851&SiteResourceAgencyNum=17648995
LD-1700,Emergency Room Care,17644351,Fraser Health Authority,17645045,Emergency Health Services,"Provides 24-hour emergency services for patients arriving at the hospital in need of immediate care because of a health crisis or urgent medical condition. Patients are seen by a doctor on a priority basis based on the severity of the patient's condition upon arrival. Wait times can vary depending on time, location and level of need.",17645051,17644363,https://www.fraserhealth.ca/patients-and-visitors/when-to-use-the-emergency/,Y,,"24 hours a day, 7 days a week",11666 Laity Street,Maple Ridge,V2X 7G5,49.214787,-122.631951,Ridge Meadows Hospital,604,http://www.healthlinkbc.ca/find/resource.asp?First=1&org=53965&agencynum=17645045&SiteResourceAgencyNum=17644363
LD-1700,Emergency Room Care,17644351,Fraser Health Authority,17645045,Emergency Health Services,"Provides 24-hour emergency services for patients arriving at the hospital in need of immediate care because of a health crisis or urgent medical condition. Patients are seen by a doctor on a priority basis based on the severity of the patient's condition upon arrival. Wait times can vary depending on time, location and level of need.",17645052,17644420,https://www.fraserhealth.ca/patients-and-visitors/when-to-use-the-emergency/,Y,,"24 hours a day, 7 days a week",330 E Columbia Street,New Westminster,V3L 3W7,49.22679,-122.892844,Royal Columbian Hospital,109,http://www.healthlinkbc.ca/find/resource.asp?First=1&org=53965&agencynum=17645045&SiteResourceAgencyNum=17644420
LD-1700,Emergency Room Care,17646543,Interior Health Authority,17647094,Emergency Health Services,"Provides emergency services for patients arriving at the hospital in need of immediate care because of a health crisis or urgent medical condition. Most locations are open 24 hours a day, 7 days a week. Hours may vary, or be subject to change, in rural communities.   Individuals are encouraged to call ahead to confirm services will be available upon their arrival.",17647128,17646898,https://www.interiorhealth.ca/services/emergency-health-services,Y,,"24 hours a day, 7 days a week",311 Columbia Street,Kamloops,V2C 2T1,50.671418,-120.334025,Royal Inland Hospital,401,http://www.healthlinkbc.ca/find/resource.asp?First=1&org=53965&agencynum=17647094&SiteResourceAgencyNum=17646898
LD-1700,Emergency Room Care,17650682,Island Health,17651530,Emergency Health Services,Provides 24-hour emergency services for patients arriving at the hospital in need of immediate care because of a health crisis or urgent medical condition. Patients are seen by a doctor on a priority basis based on the severity of the patient's condition upon arrival. Operating hours may vary in rural communities that provide emergency care; individuals are encouraged to call ahead to confirm services will be available upon their arrival.,17651534,17650835,https://www.islandhealth.ca/patients-visitors/visiting-emergency-department,Y,,"24 hours a day, 7 days a week",1952 Bay Street,Victoria,V8R 1J8,48.434061,-123.326541,Royal Jubilee Hospital,201,http://www.healthlinkbc.ca/find/resource.asp?First=1&org=53965&agencynum=17651530&SiteResourceAgencyNum=17650835
LD-1700,Emergency Room Care,17650682,Island Health,17651530,Emergency Health Services,Provides 24-hour emergency services for patients arriving at the hospital in need of immediate care because of a health crisis or urgent medical condition. Patients are seen by a doctor on a priority basis based on the severity of the patient's condition upon arrival. Operating hours may vary in rural communities that provide emergency care; individuals are encouraged to call ahead to confirm services will be available upon their arrival.,17651533,17650866,https://www.islandhealth.ca/patients-visitors/visiting-emergency-department,Y,,"24 hours a day, 7 days a week",2166 Mount Newton Cross Road,Saanichton,V8M 2B2,48.594199,-123.411323,Saanich Peninsula Hospital,217,http://www.healthlinkbc.ca/find/resource.asp?First=1&org=53965&agencynum=17651530&SiteResourceAgencyNum=17650866
LD-1700,Emergency Room Care,17648936,Vancouver Coastal Health,17649851,Emergency Health Services,"Provides 24-hour emergency health care and trauma services in most hospital sites; operating hours may vary in rural areas. Services are prioritized based on the severity of the patient's condition upon arrival. Wait times can vary depending on time, location and level of need. Visit the ED Wait Times website to see current wait times of Vancouver, North Shore and Richmond emergency rooms.",55362732,17648998,http://www.vch.ca/your-care/emergency-care,Y,,"Open 24 hours, 7 days a week",5544 Sunshine Coast Highway,Sechelt,V0N 3A0,49.475307,-123.749159,Sechelt Hospital,,http://www.healthlinkbc.ca/find/resource.asp?First=1&org=53965&agencynum=17649851&SiteResourceAgencyNum=17648998
LD-1700,Emergency Room Care,17646543,Interior Health Authority,17647094,Emergency Health Services,"Provides emergency services for patients arriving at the hospital in need of immediate care because of a health crisis or urgent medical condition. Most locations are open 24 hours a day, 7 days a week. Hours may vary, or be subject to change, in rural communities.   Individuals are encouraged to call ahead to confirm services will be available upon their arrival.",17647119,17647118,https://www.interiorhealth.ca/services/emergency-health-services,Y,,"24 hours a day, 7 days a week",601 10th Street NE,Salmon Arm,V1E 4N6,50.704586,-119.274422,Shuswap Lake General Hospital,404,http://www.healthlinkbc.ca/find/resource.asp?First=1&org=53965&agencynum=17647094&SiteResourceAgencyNum=17647118
LD-1700,Emergency Room Care,17646543,Interior Health Authority,17647094,Emergency Health Services,"Provides emergency services for patients arriving at the hospital in need of immediate care because of a health crisis or urgent medical condition. Most locations are open 24 hours a day, 7 days a week. Hours may vary, or be subject to change, in rural communities.   Individuals are encouraged to call ahead to confirm services will be available upon their arrival.",17647131,17646669,https://www.interiorhealth.ca/services/emergency-health-services,Y,,"24 hours a day, 7 days a week",401 Galena Avenue,New Denver,V0G 1S0,49.984216,-117.373941,Slocan Community Health Centre,652,http://www.healthlinkbc.ca/find/resource.asp?First=1&org=53965&agencynum=17647094&SiteResourceAgencyNum=17646669
LD-1700,Emergency Room Care,17646543,Interior Health Authority,17647094,Emergency Health Services,"Provides emergency services for patients arriving at the hospital in need of immediate care because of a health crisis or urgent medical condition. Most locations are open 24 hours a day, 7 days a week. Hours may vary, or be subject to change, in rural communities.   Individuals are encouraged to call ahead to confirm services will be available upon their arrival.",17647102,17647101,https://www.interiorhealth.ca/services/emergency-health-services,Y,,"24 hours a day, 7 days a week",911 McKinney Road,Oliver,V0H 1T3,49.184285,-119.53841,South Okanagan General Hospital,309,http://www.healthlinkbc.ca/find/resource.asp?First=1&org=53965&agencynum=17647094&SiteResourceAgencyNum=17647101
LD-1700,Emergency Room Care,17646543,Interior Health Authority,17647094,Emergency Health Services,"Provides emergency services for patients arriving at the hospital in need of immediate care because of a health crisis or urgent medical condition. Most locations are open 24 hours a day, 7 days a week. Hours may vary, or be subject to change, in rural communities.   Individuals are encouraged to call ahead to confirm services will be available upon their arrival.",55195223,17646784,https://www.interiorhealth.ca/services/emergency-health-services,Y,,Mon 08:00 - 16:00; Tue 08:00 - 16:00; Wed 08:00 - 16:00; Thu 08:00 - 16:00; Fri 08:00 - 16:00; Physician on call after hours; call ahead to confirm availability.,700 3rd Street,Keremeos,V0X 1N3,49.20514,-119.831731,South Similkameen Health Centre,310,http://www.healthlinkbc.ca/find/resource.asp?First=1&org=53965&agencynum=17647094&SiteResourceAgencyNum=17646784
LD-1700,Emergency Room Care,17646543,Interior Health Authority,17647094,Emergency Health Services,"Provides emergency services for patients arriving at the hospital in need of immediate care because of a health crisis or urgent medical condition. Most locations are open 24 hours a day, 7 days a week. Hours may vary, or be subject to change, in rural communities.   Individuals are encouraged to call ahead to confirm services will be available upon their arrival.",17647121,17646772,https://www.interiorhealth.ca/services/emergency-health-services,Y,,Mon 08:00 - 19:00; Tue 08:00 - 19:00; Wed 08:00 - 19:00; Thu 08:00 - 19:00; Fri 08:00 - 19:00; Sat 08:00 - 19:00; Sun 08:00 - 19:00;,570 Pine Avenue,Sparwood,V0B 2G0,49.721453,-114.892672,Sparwood Primary Healthcare Centre,754,http://www.healthlinkbc.ca/find/resource.asp?First=1&org=53965&agencynum=17647094&SiteResourceAgencyNum=17646772
LD-1700,Emergency Room Care,17648936,Vancouver Coastal Health,17649851,Emergency Health Services,"Provides 24-hour emergency health care and trauma services in most hospital sites; operating hours may vary in rural areas. Services are prioritized based on the severity of the patient's condition upon arrival. Wait times can vary depending on time, location and level of need. Visit the ED Wait Times website to see current wait times of Vancouver, North Shore and Richmond emergency rooms.",55362743,17649260,http://www.vch.ca/your-care/emergency-care,Y,,"Open 24 hours, 7 days a week",38140 Behrner Drive,Squamish,V8B 0J3,49.700092,-123.140086,Squamish General Hospital,128,http://www.healthlinkbc.ca/find/resource.asp?First=1&org=53965&agencynum=17649851&SiteResourceAgencyNum=17649260
LD-1700,Emergency Room Care,17646543,Interior Health Authority,17647094,Emergency Health Services,"Provides emergency services for patients arriving at the hospital in need of immediate care because of a health crisis or urgent medical condition. Most locations are open 24 hours a day, 7 days a week. Hours may vary, or be subject to change, in rural communities.   Individuals are encouraged to call ahead to confirm services will be available upon their arrival.",17647120,17647058,https://www.interiorhealth.ca/services/emergency-health-services,Y,,Please call to verify emergency service hours,575A Main Street,Lytton,V0K 1Z0,50.234313,-121.580874,St. Bartholomew's Health Centre,405,http://www.healthlinkbc.ca/find/resource.asp?First=1&org=53965&agencynum=17647094&SiteResourceAgencyNum=17647058
LD-1700,Emergency Room Care,17652139,Northern Health,17653135,Emergency Health Services,Provides 24-hour emergency services for patients arriving at the hospital in need of immediate care because of a health crisis or urgent medical condition. Patients are seen by a doctor on a priority basis based on the severity of the patient's condition upon arrival. Operating hours may vary in rural communities that provide emergency care; individuals are encouraged to call ahead to confirm services will be available upon their arrival.,17653155,17652672,https://www.northernhealth.ca/locations/hospitals,Y,,"24 hours a day, 7 days a week",3255 Hospital Road,Vanderhoof,V0J 3A2,54.02876,-124.008821,St. John Hospital,702,http://www.healthlinkbc.ca/find/resource.asp?First=1&org=53965&agencynum=17653135&SiteResourceAgencyNum=17652672
LD-1700,Emergency Room Care,17654593,Providence Health Care Society,17654692,Emergency Health Services,"Provides emergency health care services for Vancouver's downtown city centre and East Vancouver residents at two acute care hospitals. Services are prioritized based on the severity of a patient's condition upon arrival. St. Paul's Emergency Department specializes in complex and multiple diagnosis, surgery, internal medicine and speciality medicine. Mount Saint Joseph's Emergency Department offers full primary and secondary health services as well as providing specific multicultural services. Children are seen at this site, although there is no children's inpatient unit.",17654693,17654607,https://www.providencehealthcare.org/hospitals-residences/st-pauls-hospital/emergency-services,Y,Translation services available,"24 hours a day, 7 days a week",1081 Burrard Street,Vancouver,V6Z 1Y6,49.280614,-123.128913,St. Paul's Hospital - Burrard Building,102,http://www.healthlinkbc.ca/find/resource.asp?First=1&org=53965&agencynum=17654692&SiteResourceAgencyNum=17654607
LD-1700,Emergency Room Care,17652139,Northern Health,17653135,Emergency Health Services,Provides 24-hour emergency services for patients arriving at the hospital in need of immediate care because of a health crisis or urgent medical condition. Patients are seen by a doctor on a priority basis based on the severity of the patient's condition upon arrival. Operating hours may vary in rural communities that provide emergency care; individuals are encouraged to call ahead to confirm services will be available upon their arrival.,17653139,17652183,https://www.northernhealth.ca/locations/hospitals,Y,,"24 hours a day, 7 days a week",904 Brightwell Street,Stewart,V0T 1W0,55.939636,-129.990761,Stewart Health Centre,910,http://www.healthlinkbc.ca/find/resource.asp?First=1&org=53965&agencynum=17653135&SiteResourceAgencyNum=17652183
LD-1700,Emergency Room Care,17652139,Northern Health,17653135,Emergency Health Services,Provides 24-hour emergency services for patients arriving at the hospital in need of immediate care because of a health crisis or urgent medical condition. Patients are seen by a doctor on a priority basis based on the severity of the patient's condition upon arrival. Operating hours may vary in rural communities that provide emergency care; individuals are encouraged to call ahead to confirm services will be available upon their arrival.,17653138,17652189,https://www.northernhealth.ca/locations/hospitals,Y,,Mon 08:30  - 16:30 ; Tue 08:30  - 16:30 ; Wed 08:30  - 16:30 ; Thu 08:30  - 16:30 ; Fri 08:30  - 16:30 ; Sat; Closed for lunch 12:00 - 13:00; call ahead for after-hours emergency care,48875 Highway 37,Dease Lake,V0C 1L0,58.441804,-129.992101,Stikine Health Centre,770,http://www.healthlinkbc.ca/find/resource.asp?First=1&org=53965&agencynum=17653135&SiteResourceAgencyNum=17652189
LD-1700,Emergency Room Care,17652139,Northern Health,17653135,Emergency Health Services,Provides 24-hour emergency services for patients arriving at the hospital in need of immediate care because of a health crisis or urgent medical condition. Patients are seen by a doctor on a priority basis based on the severity of the patient's condition upon arrival. Operating hours may vary in rural communities that provide emergency care; individuals are encouraged to call ahead to confirm services will be available upon their arrival.,17653140,17652340,https://www.northernhealth.ca/locations/hospitals,Y,,"24 hours a day, 7 days a week",600 Stuart Drive E,Fort St James,V0J 1P0,54.442987,-124.245474,Stuart Lake Hospital,717,http://www.healthlinkbc.ca/find/resource.asp?First=1&org=53965&agencynum=17653135&SiteResourceAgencyNum=17652340
LD-1700,Emergency Room Care,17644351,Fraser Health Authority,17645045,Emergency Health Services,"Provides 24-hour emergency services for patients arriving at the hospital in need of immediate care because of a health crisis or urgent medical condition. Patients are seen by a doctor on a priority basis based on the severity of the patient's condition upon arrival. Wait times can vary depending on time, location and level of need.",17645047,17644365,https://www.fraserhealth.ca/patients-and-visitors/when-to-use-the-emergency/,Y,,"24 hours a day, 7 days a week",13750 96th Avenue,Surrey,V3V 1Z2,49.177003,-122.842316,Surrey Memorial Hospital,116,http://www.healthlinkbc.ca/find/resource.asp?First=1&org=53965&agencynum=17645045&SiteResourceAgencyNum=17644365
LD-1700,Emergency Room Care,17644351,Fraser Health Authority,17992341,Pediatric Emergency Department,"Provides emergency medical care for children aged 17 and under in a child-friendly space separate from the adult emergency department. The department offers a family-centered approach including private treatment rooms to accommodate more family members, and a designated area for pediatric mental health patients. Located on the first floor of the critical care tower.",17992333,17644365,https://www.fraserhealth.ca/Service-Directory/Services/child-and-youth-services/paediatric-emergency,Y,,"24 hours a day, 7 days a week",13750 96th Avenue,Surrey,V3V 1Z2,49.177003,-122.842316,Surrey Memorial Hospital,116,http://www.healthlinkbc.ca/find/resource.asp?First=1&org=53965&agencynum=17992341&SiteResourceAgencyNum=17644365
LD-1700,Emergency Room Care,17650682,Island Health,17651530,Emergency Health Services,Provides 24-hour emergency services for patients arriving at the hospital in need of immediate care because of a health crisis or urgent medical condition. Patients are seen by a doctor on a priority basis based on the severity of the patient's condition upon arrival. Operating hours may vary in rural communities that provide emergency care; individuals are encouraged to call ahead to confirm services will be available upon their arrival.,17651546,17650761,https://www.islandhealth.ca/patients-visitors/visiting-emergency-department,Y,,Mon 09:00 - 16:30; Tue 09:00 - 16:30; Wed 09:00 - 16:30; Thu 09:00 - 16:30; Fri 09:00 - 16:30; Please call for after-hours availability,1085 S Maquinna Drive,Tahsis,V0P 1X0,49.913388,-126.663244,Tahsis Health Centre,861,http://www.healthlinkbc.ca/find/resource.asp?First=1&org=53965&agencynum=17651530&SiteResourceAgencyNum=17650761
LD-1700,Emergency Room Care,17650682,Island Health,17651530,Emergency Health Services,Provides 24-hour emergency services for patients arriving at the hospital in need of immediate care because of a health crisis or urgent medical condition. Patients are seen by a doctor on a priority basis based on the severity of the patient's condition upon arrival. Operating hours may vary in rural communities that provide emergency care; individuals are encouraged to call ahead to confirm services will be available upon their arrival.,17651539,17651030,https://www.islandhealth.ca/patients-visitors/visiting-emergency-department,Y,,"24 hours a day, 7 days a week",261 Neill Street,Tofino,V0R 2Z0,49.151591,-125.908605,Tofino General Hospital,854,http://www.healthlinkbc.ca/find/resource.asp?First=1&org=53965&agencynum=17651530&SiteResourceAgencyNum=17651030
LD-1700,Emergency Room Care,17652139,Northern Health,17653135,Emergency Health Services,Provides 24-hour emergency services for patients arriving at the hospital in need of immediate care because of a health crisis or urgent medical condition. Patients are seen by a doctor on a priority basis based on the severity of the patient's condition upon arrival. Operating hours may vary in rural communities that provide emergency care; individuals are encouraged to call ahead to confirm services will be available upon their arrival.,17653137,17652162,https://www.northernhealth.ca/locations/hospitals,Y,,Mon 08:00 - 16:30; Tue 08:00 - 16:30; Wed 08:00 - 16:30; Thu 08:00 - 16:30; Fri 08:00 - 16:30; Nurse and doctor on-call after hours,220 Front Street,Tumbler Ridge,V0C 2W0,55.125373,-121.00198,Tumbler Ridge Health Centre,720,http://www.healthlinkbc.ca/find/resource.asp?First=1&org=53965&agencynum=17653135&SiteResourceAgencyNum=17652162
LD-1700,Emergency Room Care,17652139,Northern Health,17653135,Emergency Health Services,Provides 24-hour emergency services for patients arriving at the hospital in need of immediate care because of a health crisis or urgent medical condition. Patients are seen by a doctor on a priority basis based on the severity of the patient's condition upon arrival. Operating hours may vary in rural communities that provide emergency care; individuals are encouraged to call ahead to confirm services will be available upon their arrival.,17653146,17652145,https://www.northernhealth.ca/locations/hospitals,Y,,"24 hours a day, 7 days a week",1475 Edmonton Street,Prince George,V2M 1S2,53.911251,-122.763153,University Hospital of Northern British Columbia,703,http://www.healthlinkbc.ca/find/resource.asp?First=1&org=53965&agencynum=17653135&SiteResourceAgencyNum=17652145
LD-1700,Emergency Room Care,17652139,Northern Health,17653135,Emergency Health Services,Provides 24-hour emergency services for patients arriving at the hospital in need of immediate care because of a health crisis or urgent medical condition. Patients are seen by a doctor on a priority basis based on the severity of the patient's condition upon arrival. Operating hours may vary in rural communities that provide emergency care; individuals are encouraged to call ahead to confirm services will be available upon their arrival.,17653142,17652205,https://www.northernhealth.ca/locations/hospitals,Y,,Mon 08:45 - 16:30; Tue 08:45 - 16:30; Wed 08:45 - 16:30; Thu 08:45 - 16:30; Fri 08:45 - 16:30; Nurse and doctor on-call after hours,1445 5th Avenue,Valemount,V0E 2Z0,52.83206,-119.270254,Valemount Health Centre,718,http://www.healthlinkbc.ca/find/resource.asp?First=1&org=53965&agencynum=17653135&SiteResourceAgencyNum=17652205
LD-1700,Emergency Room Care,17648936,Vancouver Coastal Health,17649905,Emergency Health Services - Vancouver,"Provides a full range of basic and highly specialized emergency health care and trauma services to all of BC. The hospital is responsible for providing tertiary and major trauma care, including complex and unique trauma services for the province. The emergency department assess and treats patients aged 17 and over. Children aged 16 and under should go to BC Children's Hospital. Services are prioritized based on the severity of a patient's condition upon arrival.",17649906,17649540,http://www.vch.ca/your-care/emergency-care,Y,,,920 West 10th Avenue,Vancouver,V5Z 1M9,49.262412,-123.124725,"Vancouver General Hospital - Jim Pattison Pavilion, Emergency Department",101,http://www.healthlinkbc.ca/find/resource.asp?First=1&org=53965&agencynum=17649905&SiteResourceAgencyNum=17649540
LD-1700,Emergency Room Care,17646543,Interior Health Authority,17647094,Emergency Health Services,"Provides emergency services for patients arriving at the hospital in need of immediate care because of a health crisis or urgent medical condition. Most locations are open 24 hours a day, 7 days a week. Hours may vary, or be subject to change, in rural communities.   Individuals are encouraged to call ahead to confirm services will be available upon their arrival.",17647127,17646580,https://www.interiorhealth.ca/services/emergency-health-services,Y,,"24 hours a day, 7 days a week",2101 32nd Street,Vernon,V1T 5L2,50.256925,-119.273751,Vernon Jubilee Hospital,301,http://www.healthlinkbc.ca/find/resource.asp?First=1&org=53965&agencynum=17647094&SiteResourceAgencyNum=17646580
LD-1700,Emergency Room Care,17650682,Island Health,17651530,Emergency Health Services,Provides 24-hour emergency services for patients arriving at the hospital in need of immediate care because of a health crisis or urgent medical condition. Patients are seen by a doctor on a priority basis based on the severity of the patient's condition upon arrival. Operating hours may vary in rural communities that provide emergency care; individuals are encouraged to call ahead to confirm services will be available upon their arrival.,17651536,17650784,https://www.islandhealth.ca/patients-visitors/visiting-emergency-department,Y,,"24 hours a day, 7 days a week",1 Hospital Way,Victoria,V8Z 6R5,48.466809,-123.432576,Victoria General Hospital,202,http://www.healthlinkbc.ca/find/resource.asp?First=1&org=53965&agencynum=17651530&SiteResourceAgencyNum=17650784
LD-1700,Emergency Room Care,17646543,Interior Health Authority,17647094,Emergency Health Services,"Provides emergency services for patients arriving at the hospital in need of immediate care because of a health crisis or urgent medical condition. Most locations are open 24 hours a day, 7 days a week. Hours may vary, or be subject to change, in rural communities.   Individuals are encouraged to call ahead to confirm services will be available upon their arrival.",17647123,17646627,https://www.interiorhealth.ca/services/emergency-health-services,Y,,Mon 09:00 - 17:00; Tue 09:00 - 17:00; Wed 09:00 - 17:00; Thu 09:00 - 17:00; Fri 09:00 - 17:00; Sat 09:00 - 17:00; Sun 09:00 - 17:00; Closed statutory holidays,673 A Avenue,Kaslo,V0G 1M0,49.913883,-116.914089,Victorian Community Health Centre,653,http://www.healthlinkbc.ca/find/resource.asp?First=1&org=53965&agencynum=17647094&SiteResourceAgencyNum=17646627
LD-1700,Emergency Room Care,17646543,Interior Health Authority,17647094,Emergency Health Services,"Provides emergency services for patients arriving at the hospital in need of immediate care because of a health crisis or urgent medical condition. Most locations are open 24 hours a day, 7 days a week. Hours may vary, or be subject to change, in rural communities.   Individuals are encouraged to call ahead to confirm services will be available upon their arrival.",17647134,17646788,https://www.interiorhealth.ca/services/emergency-health-services,Y,,"24 hours a day, 7 days a week",16452 Chilcotin-Bella Coola Hwy 20,Tatla Lake,V0L 1V0,51.898899,-124.583244,West Chilcotin Health Centre,,http://www.healthlinkbc.ca/find/resource.asp?First=1&org=53965&agencynum=17647094&SiteResourceAgencyNum=17646788
LD-1700,Emergency Room Care,17650682,Island Health,17651530,Emergency Health Services,Provides 24-hour emergency services for patients arriving at the hospital in need of immediate care because of a health crisis or urgent medical condition. Patients are seen by a doctor on a priority basis based on the severity of the patient's condition upon arrival. Operating hours may vary in rural communities that provide emergency care; individuals are encouraged to call ahead to confirm services will be available upon their arrival.,17651540,17650862,https://www.islandhealth.ca/patients-visitors/visiting-emergency-department,Y,,"24 hours a day, 7 days a week",3949 Port Alberni Highway,Port Alberni,V9Y 4S1,49.248801,-124.781792,West Coast General Hospital,851,http://www.healthlinkbc.ca/find/resource.asp?First=1&org=53965&agencynum=17651530&SiteResourceAgencyNum=17650862
LD-1700,Emergency Room Care,17648936,Vancouver Coastal Health,17649851,Emergency Health Services,"Provides 24-hour emergency health care and trauma services in most hospital sites; operating hours may vary in rural areas. Services are prioritized based on the severity of the patient's condition upon arrival. Wait times can vary depending on time, location and level of need. Visit the ED Wait Times website to see current wait times of Vancouver, North Shore and Richmond emergency rooms.",55363049,17649180,http://www.vch.ca/your-care/emergency-care,Y,,Mon 08:00 - 22:00; Tue 08:00 - 22:00; Wed 08:00 - 22:00; Thu 08:00 - 22:00; Fri 08:00 - 22:00; Sat 08:00 - 22:00; Sun 08:00 - 22:00; On call staff may be available for after-hours services,4380 Lorimer Road,Whistler,V0N 1B4,50.120463,-122.954906,Whistler Health Care Centre,425,http://www.healthlinkbc.ca/find/resource.asp?First=1&org=53965&agencynum=17649851&SiteResourceAgencyNum=17649180
LD-1700,Emergency Room Care,17652139,Northern Health,17653135,Emergency Health Services,Provides 24-hour emergency services for patients arriving at the hospital in need of immediate care because of a health crisis or urgent medical condition. Patients are seen by a doctor on a priority basis based on the severity of the patient's condition upon arrival. Operating hours may vary in rural communities that provide emergency care; individuals are encouraged to call ahead to confirm services will be available upon their arrival.,17653157,17652355,https://www.northernhealth.ca/locations/hospitals,Y,,"24 hours a day, 7 days a week",2510 Highway 62,Hazelton,V0J 1Y0,55.259655,-127.651295,Wrinch Memorial Hospital,901,http://www.healthlinkbc.ca/find/resource.asp?First=1&org=53965&agencynum=17653135&SiteResourceAgencyNum=17652355
LD-1700,Emergency Room Care,17650682,Island Health,17651530,Emergency Health Services,Provides 24-hour emergency services for patients arriving at the hospital in need of immediate care because of a health crisis or urgent medical condition. Patients are seen by a doctor on a priority basis based on the severity of the patient's condition upon arrival. Operating hours may vary in rural communities that provide emergency care; individuals are encouraged to call ahead to confirm services will be available upon their arrival.,17651545,17650941,https://www.islandhealth.ca/patients-visitors/visiting-emergency-department,Y,,Mon 08:30 - 17:00; Tue 08:30 - 17:00; Wed 08:30 - 17:00; Thu 08:30 - 17:00; Fri 08:30 - 17:00; Please call for after-hours availability,500 Parkway Drive,Zeballos,V0P 2A0,49.989011,-126.851068,Zeballos Health Centre,,http://www.healthlinkbc.ca/find/resource.asp?First=1&org=53965&agencynum=17651530&SiteResourceAgencyNum=17650941
